OBJECT_NAME,OBJECT_ID,EPOCH,MEAN_MOTION,ECCENTRICITY,INCLINATION,RA_OF_ASC_NODE,ARG_OF_PERICENTER,MEAN_ANOMALY,EPHEMERIS_TYPE,CLASSIFICATION_TYPE,NORAD_CAT_ID,ELEMENT_SET_NO,REV_AT_EPOCH,BSTAR,MEAN_MOTION_DOT,MEAN_MOTION_DDOT
STARLINK-31898,2024-100W,2026-06-23T15:52:38.227584,15.27576999,.00010876,43.0011,243.4906,250.0183,110.0552,0,U,59905,999,11739,.8919779E-5,-.17E-6,0
STARLINK-31861,2024-100X,2026-06-23T21:45:53.973216,15.27571936,.00011906,43.0015,238.3974,256.1394,103.9325,0,U,59906,999,11747,-.3087188E-5,-.347E-5,0
STARLINK-31920,2024-100Y,2026-06-24T06:00:02.000160,15.58916245,.00214218,42.9892,193.9575,90.4977,157.0047,0,U,59907,999,593,.18691175E-2,.153024E-2,0
EARTHCARE,2024-101A,2026-06-23T19:15:06.086592,15.57080539,.00015752,97.0520,301.3155,105.6305,254.5125,0,U,59908,999,11759,.10439851E-3,.7456E-4,0
TIANQI-25,2024-102A,2026-06-24T05:42:40.982976,13.99173084,.00126857,44.9759,230.5744,269.8704,90.0674,0,U,59909,999,10589,.69523388E-4,-.27E-6,0
TIANQI-26,2024-102B,2026-06-24T06:58:28.472448,13.99186619,.00115273,44.9722,229.9293,273.0869,86.8645,0,U,59910,999,10590,.69660236E-4,-.27E-6,0
TIANQI-27,2024-102C,2026-06-24T06:07:44.156352,13.99155595,.00083052,44.9768,229.9951,278.9860,81.0032,0,U,59911,999,10589,.78369217E-4,-.14E-6,0
TIANQI-28,2024-102D,2026-06-24T06:34:55.855776,13.99171092,.00130131,44.9776,230.1389,278.9610,80.9749,0,U,59912,999,10589,.69044071E-4,-.28E-6,0
PAKSAT-MM1,2024-104A,2026-06-22T22:15:18.849600,1.00269274,.00026523,0.0356,91.9122,345.7570,205.4236,0,U,59915,999,758,0,.157E-5,0
2024-105A,2024-105A,2026-06-24T07:57:47.045664,15.17113422,.00128419,97.5832,190.5760,196.0082,164.0747,0,U,59917,999,11411,.13201426E-3,.2552E-4,0
2024-105B,2024-105B,2026-06-24T07:57:23.345280,15.19228382,.00111023,97.5819,190.8121,211.5282,148.5288,0,U,59918,999,11413,.32735149E-3,.6837E-4,0
2024-105D,2024-105D,2026-06-24T07:41:45.940704,15.22666524,.00115807,97.5820,194.3230,185.4118,174.6995,0,U,59920,999,11434,.2179368E-3,.501E-4,0
2024-105E,2024-105E,2026-06-24T07:33:36.624672,15.10862446,.00319357,97.5793,191.8471,159.4282,200.8242,0,U,59921,999,11421,.16541352E-3,.2718E-4,0
STARLINK-31872,2024-106A,2026-06-23T23:22:09.656832,15.27591719,.00022753,43.0058,92.6241,278.7863,81.2731,0,U,59922,999,11681,-.89995885E-4,-.2739E-4,0
STARLINK-31972,2024-106B,2026-06-23T19:47:57.675840,15.27556228,.00014535,43.0041,93.2281,270.5624,89.5061,0,U,59923,999,11680,.16419617E-3,.4256E-4,0
STARLINK-31958,2024-106C,2026-06-23T10:32:59.953920,15.27574761,.00009382,43.0007,80.7928,273.6511,86.4234,0,U,59924,999,11686,.3291131E-5,-.171E-5,0
STARLINK-31959,2024-106D,2026-06-23T03:22:40.306656,15.27585291,.00006238,43.0012,93.1514,258.0002,102.0780,0,U,59925,999,11669,.68026955E-4,.1611E-4,0
STARLINK-31957,2024-106E,2026-06-23T04:48:45.954432,15.27563329,.00007594,43.0016,96.2813,287.8194,72.2575,0,U,59926,999,11671,-.30945043E-4,-.1113E-4,0
STARLINK-31968,2024-106F,2026-06-24T01:23:52.353312,15.27580947,.00006537,43.0001,91.5383,301.8472,58.2316,0,U,59927,999,11684,.20882377E-4,.313E-5,0
STARLINK-31970,2024-106G,2026-06-23T19:42:23.941152,15.27577781,.00004297,43.0046,93.1988,14.4281,345.6583,0,U,59928,999,11680,.13888221E-4,.12E-5,0
STARLINK-31932,2024-106H,2026-06-22T03:28:33.422592,15.24950915,.00040388,42.9982,99.4098,101.7627,258.3677,0,U,59929,999,11653,-.49398921E-1,-.1158286E-1,0
STARLINK-31956,2024-106J,2026-06-24T01:49:46.366176,15.27584389,.00011392,43.0027,91.6783,268.2118,91.8603,0,U,59930,999,11679,-.48272812E-4,-.159E-4,0
STARLINK-31960,2024-106K,2026-06-23T05:03:38.246112,15.27488343,.00012985,43.0011,96.3561,302.1202,57.9523,0,U,59931,999,11666,-.81054964E-4,-.2485E-4,0
STARLINK-31432,2024-106L,2026-06-24T05:14:44.287296,15.27581180,.00021708,43.0018,91.0204,243.1513,116.9116,0,U,59932,999,11680,-.16059514E-2,-.44196E-3,0
STARLINK-31853,2024-106M,2026-06-24T01:55:19.656768,15.27582602,.0000637,43.0027,91.7040,277.1842,82.8937,0,U,59933,999,11679,.4819291E-5,-.129E-5,0
STARLINK-31971,2024-106N,2026-06-23T10:56:59.302752,15.27575449,.00011192,43.0028,92.0089,263.2671,96.8053,0,U,59934,999,11661,.7498438E-5,-.56E-6,0
STARLINK-31962,2024-106Q,2026-06-23T20:10:09.850656,15.27575481,.0001129,43.0039,93.3411,275.5164,84.5559,0,U,59936,999,11675,.18451478E-4,.246E-5,0
STARLINK-31879,2024-106R,2026-06-24T01:07:25.931424,15.27580272,.00011117,43.0013,92.3074,260.9607,99.1119,0,U,59937,999,11683,.37231267E-4,.763E-5,0
STARLINK-31876,2024-106S,2026-06-24T01:44:14.496864,15.27575460,.00003561,43.0006,91.6453,187.3407,172.7440,0,U,59938,999,11680,.17359242E-4,.216E-5,0
STARLINK-31955,2024-106T,2026-06-23T11:07:11.997984,15.27587190,.00012748,43.0008,94.8050,268.2490,91.8216,0,U,59939,999,11674,.7134827E-4,.1702E-4,0
STARLINK-31946,2024-106U,2026-06-23T03:03:41.529600,15.27576019,.00013373,43.0026,97.4487,257.9575,102.1127,0,U,59940,999,10727,.44141832E-4,.953E-5,0
STARLINK-31948,2024-106V,2026-06-23T04:29:16.519200,15.27579753,.00008503,43.0022,93.4726,267.0972,92.9783,0,U,59941,999,11669,-.29363579E-4,-.107E-4,0
STARLINK-31900,2024-106W,2026-06-23T03:20:07.736352,15.27580383,.00010831,43.0003,96.6793,266.2066,93.8662,0,U,59942,999,11665,.37831138E-4,.779E-5,0
STARLINK-31973,2024-106X,2026-06-23T19:59:03.941664,15.27574305,.00012667,43.0042,93.2883,268.2423,91.8284,0,U,59943,999,11675,.5670302E-5,-.106E-5,0
STARLINK-31966,2024-106Y,2026-06-23T19:53:31.091712,15.27581549,.0001249,43.0042,93.2528,259.4831,100.5880,0,U,59944,999,11680,-.23656102E-4,-.913E-5,0
STARLINK-11145 [DTC],2024-107A,2026-06-24T00:42:46.549152,15.69716895,.00012704,53.1603,87.3602,80.6911,279.4251,0,U,59945,999,11884,-.3244849E-5,-.982E-5,0
STARLINK-11113 [DTC],2024-107C,2026-06-24T00:49:41.422944,15.69709791,.00008953,53.1587,86.6448,103.2932,256.8186,0,U,59947,999,11885,.11613454E-4,.819E-5,0
STARLINK-11123 [DTC],2024-107D,2026-06-24T00:28:39.196704,15.69697124,.00006736,53.1586,87.2925,42.6010,317.5060,0,U,59948,999,11890,-.10093185E-4,-.181E-4,0
STARLINK-11138 [DTC],2024-107E,2026-06-24T01:32:05.406144,15.69697216,.00007279,53.1582,86.8453,80.3296,279.7804,0,U,59949,999,11891,-.15883523E-4,-.251E-4,0
STARLINK-11130 [DTC],2024-107F,2026-06-24T00:21:35.100576,15.69709446,.00008254,53.1583,87.2581,86.1419,273.9693,0,U,59950,999,11884,.6762668E-5,.231E-5,0
STARLINK-11124 [DTC],2024-107H,2026-06-24T00:07:27.578784,15.69707079,.00010266,53.1599,87.1948,85.9703,274.1432,0,U,59952,999,11891,.7306172E-5,.297E-5,0
STARLINK-11133 [DTC],2024-107K,2026-06-24T01:17:56.774112,15.69709876,.00014113,53.1581,86.7890,143.6242,216.4872,0,U,59954,999,11885,.12548027E-4,.931E-5,0
STARLINK-11144 [DTC],2024-107L,2026-06-24T01:10:53.059872,15.69707506,.00012129,53.1593,86.7532,120.1100,240.0038,0,U,59955,999,11891,.4940982E-5,.1E-6,0
STARLINK-11134 [DTC],2024-107M,2026-06-24T01:03:49.826880,15.69699945,.00012,53.1596,86.7175,91.3549,268.7606,0,U,59956,999,11878,-.5536131E-5,-.1259E-4,0
STARLINK-11142 [DTC],2024-107N,2026-06-24T00:56:45.769632,15.69705845,.00008314,53.1582,86.6840,89.2692,270.8421,0,U,59957,999,11886,-.3647787E-5,-.103E-4,0
STARLINK-31995,2024-107P,2026-06-24T00:56:08.509632,15.34399109,.00014899,53.1626,291.2207,82.5992,277.5180,0,U,59958,999,11488,-.29762432E-4,-.1382E-4,0
STARLINK-31989,2024-107Q,2026-06-23T18:07:38.294112,15.34417041,.00011651,53.1584,292.2979,86.0892,274.0244,0,U,59959,999,11604,.49138381E-3,.16271E-3,0
STARLINK-31856,2024-107R,2026-06-23T17:58:34.254912,15.34378161,.000128,53.1597,292.2596,79.8136,280.3011,0,U,59960,999,11604,.31643542E-4,.692E-5,0
STARLINK-31993,2024-107S,2026-06-23T16:45:58.092192,15.34381481,.00009312,53.1622,292.6535,98.0230,262.0878,0,U,59961,999,11597,-.65456047E-4,-.2585E-4,0
STARLINK-31980,2024-107T,2026-06-23T14:53:58.112736,15.34394063,.00007157,53.1603,292.8767,75.2310,284.8772,0,U,59962,999,11602,.91480362E-4,.2715E-4,0
STARLINK-31991,2024-107U,2026-06-23T07:41:21.975936,15.34386093,.00018271,53.1597,294.5557,94.2559,265.8652,0,U,59963,999,11597,.3051324E-4,.654E-5,0
STARLINK-31979,2024-107V,2026-06-24T00:25:50.841120,15.34400632,.00009323,53.1587,291.0918,69.5516,290.5587,0,U,59964,999,11603,.31118948E-4,.675E-5,0
PREFIRE-1,2024-108A,2026-06-24T03:51:42.001056,15.23676496,.00106776,97.5319,329.9941,209.2778,150.7862,0,U,59965,999,11365,.17557693E-3,.4144E-4,0
2024-110A,2024-110A,2026-06-24T06:22:58.992384,15.13360881,.00078186,97.5694,266.8972,222.4541,137.6087,0,U,60012,999,11298,.35065246E-3,.6192E-4,0
2024-110B,2024-110B,2026-06-24T06:21:13.014144,15.22538374,.00101572,97.5727,271.2744,218.5153,141.5359,0,U,60013,999,11326,.27858727E-3,.6399E-4,0
2024-110C,2024-110C,2026-06-24T07:43:26.603616,14.98266644,.00124489,97.5453,250.3570,120.1081,240.1378,0,U,60014,999,10287,.52900028E-4,.573E-5,0
STARLINK-31978,2024-111A,2026-06-23T20:52:20.523936,15.31707949,.00011746,53.1601,302.1888,97.6875,262.4260,0,U,60016,999,11519,.3458896E-4,.709E-5,0
STARLINK-31987,2024-111B,2026-06-24T01:40:58.517472,15.31693164,.00013088,53.1620,301.3054,92.5431,267.5720,0,U,60017,999,11528,-.9761287E-5,-.668E-5,0
STARLINK-31984,2024-111C,2026-06-23T20:13:59.376576,15.30203323,.0000953,53.1611,302.7260,77.2988,282.8119,0,U,60018,999,11513,.59386128E-4,.14E-4,0
STARLINK-31986,2024-111D,2026-06-23T15:18:09.758016,15.30193960,.00008119,53.1621,303.5740,82.4673,277.6420,0,U,60019,999,11526,-.27995637E-4,-.1188E-4,0
STARLINK-31883,2024-111E,2026-06-24T01:11:20.928192,15.30200156,.00007544,53.1620,301.8856,93.6293,266.4794,0,U,60020,999,11526,-.4593232E-5,-.495E-5,0
STARLINK-31967,2024-111F,2026-06-23T15:20:39.462432,15.34393226,.00007695,53.1611,301.4630,56.1519,303.9557,0,U,60021,999,11529,.28993885E-4,.604E-5,0
STARLINK-31982,2024-111G,2026-06-23T18:19:09.390432,15.34398035,.00011755,53.1602,300.8180,77.9833,282.1302,0,U,60022,999,11531,.12241258E-4,.37E-6,0
STARLINK-31992,2024-111H,2026-06-24T02:08:56.169600,15.30157859,.00013255,53.1604,301.4225,82.3344,277.7808,0,U,60023,999,11533,.1723367E-3,.4742E-4,0
